0 PEGASUS DEB
1 24114U 94029FM  13281.50226677  .00008991  00000-0  42459-3 0  3916
2 24114 082.0641 286.2949 0036893 163.7502 319.9625 15.18675607 90075
0 PEGASUS DEB
1 24114U 94029FM  13282.48950694  .00015384  00000-0  72610-3 0  3924
2 24114 082.0641 285.2588 0036949 160.3180 317.5105 15.18714986 90228
0 PEGASUS DEB
1 24114U 94029FM  13283.48539002  .00014297  00000-0  67434-3 0  3932
2 24114 082.0641 284.2138 0037024 156.8003 002.4902 15.18733866 90376
0 PEGASUS DEB
1 24114U 94029FM  13286.03662580  .00012568  00000-0  59159-3 0  3950
2 24114 082.0632 281.5360 0037434 148.1461 271.3299 15.18785657 90764
0 PEGASUS DEB
1 24114U 94029FM  13287.49764513  .00014395  00000-0  67705-3 0  3967
2 24114 082.0634 280.0022 0037554 143.2303 339.6143 15.18813293 90987
0 PEGASUS DEB
1 24114U 94029FM  13288.41866725  .00020366  00000-0  95679-3 0  3975
2 24114 082.0633 279.0355 0037622 140.2727 335.3672 15.18848157 91120
0 PEGASUS DEB
1 24114U 94029FM  13289.34377507  .00018402  00000-0  86384-3 0  3985
2 24114 082.0635 278.0641 0037667 137.2821 353.5865 15.18876007 91265
0 PEGASUS DEB
1 24114U 94029FM  13290.72520984  .00019164  00000-0  89850-3 0  3996
2 24114 082.0634 276.6133 0037651 132.7966 347.0491 15.18917290 91473
0 PEGASUS DEB
1 24114U 94029FM  13291.96496694  .00014073  00000-0  65910-3 0  4001
2 24114 082.0636 275.3117 0037685 128.6192 286.1672 15.18954760 91663
0 PEGASUS DEB
1 24114U 94029FM  13293.02034758  .00014609  00000-0  68356-3 0  4012
2 24114 082.0640 274.2032 0037825 125.2353 297.0517 15.18983022 91820
0 PEGASUS DEB
1 24114U 94029FM  13295.40156831  .00019780  00000-0  92349-3 0  4028
2 24114 082.0642 271.7030 0038121 117.2530 358.4537 15.19045270 92189
